<?xml version="1.0" encoding="UTF-8"?>
<kml xmlns="http://www.opengis.net/kml/2.2"><Document><name>África 2027 · 02 Senegal-Guinea</name>
  <Placemark>
    <name>Delta del Saloum</name>
    <description><![CDATA[Paisaje de manglares, bolongs, islas y grandes acumulaciones históricas de conchas. Explorar en piragua desde Toubacouta y dedicar aproximadamente dos días al conjunto del delta.
PERRO: requiere autorización escrita en reservas; fuera de ellas, permitido con condiciones]]></description>
    <Point><coordinates>-16.49878,13.83535,0</coordinates></Point>
  </Placemark>
  <Placemark>
    <name>Parque Nacional de Djoudj</name>
    <description><![CDATA[Gran humedal del delta del Senegal, fundamental para las aves migratorias. La experiencia principal es la salida en piragua entre pelícanos y otras aves acuáticas; plantear como visita de un día desde Saint-Louis.
PERRO: prohibido]]></description>
    <Point><coordinates>-16.2741,16.35833,0</coordinates></Point>
  </Placemark>
  <Placemark>
    <name>Saint-Louis – isla histórica</name>
    <description><![CDATA[Antigua capital colonial asentada en una isla del río Senegal. Recorrer a pie el puente Faidherbe, los muelles y la arquitectura histórica; base ideal para Djoudj y Gandiol. Dedicar 1–2 días.
PERRO: permitido con condiciones]]></description>
    <Point><coordinates>-16.50373,16.02607,0</coordinates></Point>
  </Placemark>
  <Placemark>
    <name>Guet Ndar – barrio pesquero</name>
    <description><![CDATA[Barrio pesquero de Saint-Louis, muy denso y activo, con piraguas, mercados y regreso de las embarcaciones. Visitar con discreción, pedir permiso antes de fotografiar y evitar bloquear la actividad local.
PERRO: permitido con condiciones]]></description>
    <Point><coordinates>-16.50869,16.02091,0</coordinates></Point>
  </Placemark>
  <Placemark>
    <name>Parque Nacional de la Langue de Barbarie</name>
    <description><![CDATA[Dunas, estuario, playa y colonias de aves en la desembocadura del río Senegal. Encaja como excursión desde Saint-Louis o parada en Gandiol antes de seguir hacia Dakar.
PERRO: requiere autorización escrita]]></description>
    <Point><coordinates>-16.51,15.86644,0</coordinates></Point>
  </Placemark>
  <Placemark>
    <name>Lac Rose – lago Retba</name>
    <description><![CDATA[Lago hipersalino conocido por sus tonos rosados y por la extracción tradicional de sal. El color depende de la salinidad, la luz y las condiciones del momento; plantear como parada de medio día, no como destino principal
PERRO: permitido con condiciones]]></description>
    <Point><coordinates>-17.23413,14.83878,0</coordinates></Point>
  </Placemark>
  <Placemark>
    <name>Isla de Gorée</name>
    <description><![CDATA[Conjunto histórico y memorial frente a Dakar, con arquitectura colonial, museos y espacios vinculados a la trata atlántica. Reservar medio día o un día y dejar los vehículos vigilados en Dakar.
PERRO: pendiente de confirmación oficial para chalupa y museos]]></description>
    <Point><coordinates>-17.39893,14.66786,0</coordinates></Point>
  </Placemark>
  <Placemark>
    <name>Museo de las Civilizaciones Negras</name>
    <description><![CDATA[Museo de referencia para conocer las civilizaciones africanas, sus diásporas y el arte del continente. Combinar con Gorée y el centro de Dakar; comprobar horarios y exposiciones antes de la visita.
PERRO: prohibido en el interior]]></description>
    <Point><coordinates>-17.43513,14.67729,0</coordinates></Point>
  </Placemark>
  <Placemark>
    <name>Monumento del Renacimiento Africano</name>
    <description><![CDATA[Monumento situado sobre una de las colinas de las Mamelles, con amplias vistas de Dakar y la costa. Parada corta que encaja con la Corniche y el faro.
PERRO: permitido con condiciones en exterior]]></description>
    <Point><coordinates>-17.49495,14.72221,0</coordinates></Point>
  </Placemark>
  <Placemark>
    <name>Joal-Fadiouth – isla de conchas</name>
    <description><![CDATA[Localidad formada por Joal y la isla peatonal de Fadiouth, construida sobre conchas. Destacan el puente, los graneros y el cementerio compartido por comunidades musulmanas y cristianas. Visita de medio día.
PERRO: permitido con condiciones; confirmar puente y cementerio]]></description>
    <Point><coordinates>-16.85029,14.18117,0</coordinates></Point>
  </Placemark>
  <Placemark>
    <name>Toubacouta – base del delta del Saloum</name>
    <description><![CDATA[Base práctica para navegar por los bolongs, visitar islas y observar aves en el delta del Saloum. Reservar unas dos noches y escoger un alojamiento con aparcamiento seguro para ambos vehículos.
PERRO: permitido con condiciones; confirmar alojamiento y piragua]]></description>
    <Point><coordinates>-16.47003,13.7811,0</coordinates></Point>
  </Placemark>
  <Placemark>
    <name>Parque Nacional de Niokolo-Koba</name>
    <description><![CDATA[Gran parque atravesado por el río Gambia, valioso por su paisaje salvaje, primates, antílopes, hipopótamos y aves. No esperar densidades tipo Serengeti; dedicar dos días con guía y pistas verificadas.
PERRO: prohibido]]></description>
    <Point><coordinates>-12.94482,13.01,0</coordinates></Point>
  </Placemark>
  <Placemark>
    <name>Kédougou – base del Senegal oriental</name>
    <description><![CDATA[Base para combustible, provisiones, guías y acceso al País Bassari, Bandafassi, Iwol y Dindéfelo. Conviene revisar ambos vehículos antes de entrar en pistas y confirmar la salida posterior hacia Kalifourou–Koundara.
PERRO: permitido con condiciones]]></description>
    <Point><coordinates>-12.18075,12.55558,0</coordinates></Point>
  </Placemark>
  <Placemark>
    <name>Bandafassi – puerta del País Bassari</name>
    <description><![CDATA[Localidad de acceso al paisaje cultural bassari, fulani y bedik. Utilizar guía local acreditado y plantear la visita como encuentro respetuoso, no como una parada fotográfica improvisada.
PERRO: requiere autorización escrita del guía/comunidad]]></description>
    <Point><coordinates>-12.3106,12.53872,0</coordinates></Point>
  </Placemark>
  <Placemark>
    <name>Iwol – aldea bedik</name>
    <description><![CDATA[Aldea bedik en altura, accesible mediante caminata desde Ibel. La experiencia depende de un guía local, del respeto a la comunidad y de evitar las horas de máximo calor.
PERRO: requiere autorización escrita del guía/comunidad]]></description>
    <Point><coordinates>-12.38177,12.52655,0</coordinates></Point>
  </Placemark>
  <Placemark>
    <name>Cascada de Dindéfelo</name>
    <description><![CDATA[Cascada y bosque al pie del macizo del Fouta-Djalon. En enero-febrero llevará menos agua que durante o después de las lluvias, pero el paisaje y la caminata siguen justificando la visita.
PERRO: requiere autorización escrita de la gestión local]]></description>
    <Point><coordinates>-12.32356,12.36526,0</coordinates></Point>
  </Placemark>
  <Placemark>
    <name>Ethiolo – cultura bassari</name>
    <description><![CDATA[Aldea y territorio bassari próximo a Salémata. Solo merece el desvío con guía local y tiempo para comprender la cultura viva; evitar visitas invasivas o durante ceremonias sin invitación.
PERRO: requiere autorización escrita del guía/comunidad]]></description>
    <Point><coordinates>-12.85603,12.58934,0</coordinates></Point>
  </Placemark>
  <Placemark>
    <name>Museo Théodore Monod de Arte Africano</name>
    <description><![CDATA[Colecciones de arte, arqueología y culturas de África occidental en el histórico edificio del IFAN. Complementa al Museo de las Civilizaciones Negras con una escala más íntima y etnográfica.
PERRO: prohibido en el interior]]></description>
    <Point><coordinates>-17.43815,14.66353,0</coordinates></Point>
  </Placemark>
  <Placemark>
    <name>Reserva de Fauna del Ferlo Norte</name>
    <description><![CDATA[Gran reserva saheliana de estepa y sabana de acacias. Interesa por el ecosistema, la avifauna y la sensación de aislamiento; no esperar una densidad de fauna comparable a Niokolo-Koba.
Perro: requiere autorización previa
PERRO: requiere autorización escrita]]></description>
    <Point><coordinates>-14.01075,15.5452,0</coordinates></Point>
  </Placemark>
  <Placemark>
    <name>Enclos de Katané — fauna saharosaheliana</name>
    <description><![CDATA[Recinto de aclimatación y reintroducción dentro de Ferlo Norte, conocido por sus oryx, gacelas y tortugas sulcata. El acceso es remoto y debe coordinarse con el conservador o los ecoguardas desde Ranérou.
Perro: área de 
PERRO: requiere autorización escrita]]></description>
    <Point><coordinates>-14.1,15.47,0</coordinates></Point>
  </Placemark>
  <Placemark>
    <name>Ranérou — puerta del Ferlo</name>
    <description><![CDATA[Base práctica para combustible, agua, información de pistas y contacto con los responsables de Ferlo Norte y Sur. Buen punto para conocer la vida pastoril peul sin convertir la visita en un safari convencional.
Perro: lo
PERRO: permitido con condiciones]]></description>
    <Point><coordinates>-13.96239,15.29808,0</coordinates></Point>
  </Placemark>
  <Placemark>
    <name>Reserva de Fauna del Ferlo Sur</name>
    <description><![CDATA[Sector protegido de sabana saheliana al sur de Ranérou. Aporta paisaje remoto y continuidad ecológica hacia el Senegal oriental; la fauna suele ser más dispersa que en Ferlo Norte.
Perro: requiere autorización previa. Ve
PERRO: requiere autorización escrita]]></description>
    <Point><coordinates>-13.9167,14.9167,0</coordinates></Point>
  </Placemark>
  <Placemark>
    <name>Pista 4x4 Ranérou–Tambacounda — travesía del Ferlo</name>
    <description><![CDATA[Travesía overland de unos 230 km por sabana y pistas a veces arenosas. El trazado puede resultar poco evidente, con servicios escasos; descargar una traza contrastada, comprobar el estado local y salir con autonomía de a
PERRO: pendiente de confirmación oficial si atraviesa núcleos protegidos]]></description>
    <Point><coordinates>-13.8,14.35,0</coordinates></Point>
  </Placemark>
</Document></kml>