<?xml version="1.0" encoding="UTF-8"?>
<kml xmlns="http://www.opengis.net/kml/2.2"><Document><name>África 2027 · 03 Liberia-Ghana</name>
  <Placemark>
    <name>Monrovia (Providence Island y West Point)</name>
    <description><![CDATA[Capital y única gran base logística: puerto, aeropuerto (Roberts Intl., a ~1 h), bancos y talleres. Providence Island, cuna histórica del asentamiento, y el barrio densísimo de West Point como referencia urbana.
PERRO: permitido con condiciones]]></description>
    <Point><coordinates>-10.8074,6.3156,0</coordinates></Point>
  </Placemark>
  <Placemark>
    <name>Robertsport</name>
    <description><![CDATA[Península de Cape Mount, meca del surf en África Occidental, playas extensas y poco masificadas, y el Centro Tubman de Cultura Africana. Buen punto de descanso cerca de la frontera con Sierra Leona.
PERRO: permitido]]></description>
    <Point><coordinates>-11.3667,6.75,0</coordinates></Point>
  </Placemark>
  <Placemark>
    <name>Parque Nacional de Sapo</name>
    <description><![CDATA[Segunda mayor selva primaria continua de África Occidental tras Taï; hipopótamo pigmeo, elefante de bosque y chimpancés. Acceso por pista larga desde Greenville; solo con guía del parque y autorización previa. El perro n
PERRO: prohibido]]></description>
    <Point><coordinates>-8.8,5.4,0</coordinates></Point>
  </Placemark>
  <Placemark>
    <name>Reserva Estricta del Monte Nimba (lado liberiano)</name>
    <description><![CDATA[Macizo montañoso compartido con Guinea y Costa de Marfil, reserva UNESCO de alta biodiversidad; el acceso turístico regulado es limitado y depende de la zona (núcleo vs. periferia). Confirmar con la Forestry Development 
PERRO: requiere autorización escrita]]></description>
    <Point><coordinates>-8.5,7.55,0</coordinates></Point>
  </Placemark>
  <Placemark>
    <name>Man y las Dents de Man</name>
    <description><![CDATA[Ciudad de montaña rodeada de picos escarpados (Dents de Man), cascadas y puentes colgantes tradicionales de liana. Base de aclimatación tras la entrada desde Liberia, con clima más fresco que la costa.
PERRO: permitido]]></description>
    <Point><coordinates>-7.5539,7.4125,0</coordinates></Point>
  </Placemark>
  <Placemark>
    <name>Yamoussoukro — Basílica de Nuestra Señora de la Paz</name>
    <description><![CDATA[Capital política del país y mayor basílica católica del mundo por superficie, réplica ampliada de San Pedro del Vaticano. Visita guiada obligatoria en el interior; el perro puede quedarse en el vehículo o esperar en el e
PERRO: permitido con condiciones]]></description>
    <Point><coordinates>-5.2833,6.8167,0</coordinates></Point>
  </Placemark>
  <Placemark>
    <name>Grand-Bassam</name>
    <description><![CDATA[Antigua capital colonial francesa, ciudad UNESCO de arquitectura colonial en decadencia elegante junto a playas de arena; museo del traje y ambiente artesanal. Parada obligada cerca de Abidjan.
PERRO: permitido]]></description>
    <Point><coordinates>-3.7333,5.2,0</coordinates></Point>
  </Placemark>
  <Placemark>
    <name>Abidjan (Plateau y puerto)</name>
    <description><![CDATA[Capital económica y mayor base logística del golfo de Guinea occidental: puerto, aeropuerto internacional, embajada de España, talleres y recambios 4x4 de referencia regional.
PERRO: permitido con condiciones]]></description>
    <Point><coordinates>-4.0122,5.3097,0</coordinates></Point>
  </Placemark>
  <Placemark>
    <name>Castillo de Elmina</name>
    <description><![CDATA[El fuerte europeo más antiguo del África subsahariana (portugués, 1482), punto central de la memoria de la trata atlántica; museo y visita guiada obligatoria en el interior. El perro espera fuera durante la visita.
PERRO: permitido con condiciones]]></description>
    <Point><coordinates>-1.3508,5.0836,0</coordinates></Point>
  </Placemark>
  <Placemark>
    <name>Castillo de Cape Coast</name>
    <description><![CDATA[Fuerte y museo gemelo de Elmina, con la «puerta sin retorno» hacia los barcos negreros; una de las visitas históricas más intensas de la ruta. Reservar tiempo para la explicación guiada, obligatoria y recomendable.
PERRO: permitido con condiciones]]></description>
    <Point><coordinates>-1.2466,5.1053,0</coordinates></Point>
  </Placemark>
  <Placemark>
    <name>Parque Nacional de Kakum (pasarela de dosel)</name>
    <description><![CDATA[Selva tropical primaria con la pasarela colgante de dosel más conocida de África Occidental, a 30-40 m de altura entre siete plataformas. El perro no puede acceder al parque ni a la pasarela.
PERRO: prohibido]]></description>
    <Point><coordinates>-1.3833,5.35,0</coordinates></Point>
  </Placemark>
  <Placemark>
    <name>Accra (Independence Square y Jamestown)</name>
    <description><![CDATA[Capital y mayor base logística del golfo de Guinea oriental: puerto (Tema), aeropuerto internacional, embajada de España, talleres y recambios. Independence Square y el barrio pesquero de Jamestown como referencia urbana
PERRO: permitido con condiciones]]></description>
    <Point><coordinates>-0.1942,5.5471,0</coordinates></Point>
  </Placemark>
  <Placemark>
    <name>Cascadas de Wli</name>
    <description><![CDATA[La cascada más alta de Ghana (~80 m), en la región del Volta cerca de la frontera con Togo; caminata corta hasta la caída baja, más exigente hasta la alta. Buen último punto antes de cruzar a Togo por Aflao/Kpalimé.
PERRO: permitido]]></description>
    <Point><coordinates>0.5833,7.1167,0</coordinates></Point>
  </Placemark>
</Document></kml>